<?xml version="1.0" encoding="UTF-8"?>
<kml xmlns="http://www.opengis.net/kml/2.2">
  <Document>
    <name>Top 100 cafeterías Argentina 2026</name>
    <description>The Best Coffee Shops Argentina 2026. Importá este archivo en Google My Maps y después usá Copiar mapa para tenerlo en tu cuenta.</description>
    <Placemark>
      <name>#1 Tres</name>
      <description>Tostadero y barra separados por un panel de vidrio. Sirven y tuestan su propio café, con grano colombiano de acidez media-alta y notas cítricas. Local minimalista frente a la vía del tren Mitre.
Teodoro García 2806, Colegiales
https://www.instagram.com/tres.tostador/</description>
      <Point>
        <coordinates>-58.448281,-34.573272,0</coordinates>
      </Point>
    </Placemark>
    <Placemark>
      <name>#2 Blanca Studio</name>
      <description>Espacio íntimo entre Colegiales y Chacarita. Menú de orígenes según temporada, matcha y pastelería, con vinilos de fondo.
Av. Álvarez Thomas 764, Chacarita
https://www.instagram.com/blancastudio___/</description>
      <Point>
        <coordinates>-58.4545,-34.5858,0</coordinates>
      </Point>
    </Placemark>
    <Placemark>
      <name>#3 Ciro</name>
      <description>Restaurante y cafetería de inspiración italiana. Granos de Brasil con Modo Barista: frutos rojos, chocolate y almendra. Sedes en Puerto Madero y Palermo.
Pierina Dealessi 1350, Puerto Madero
https://www.instagram.com/ciro.gastronomia/</description>
      <Point>
        <coordinates>-58.363376,-34.614238,0</coordinates>
      </Point>
    </Placemark>
    <Placemark>
      <name>#4 Vive Café</name>
      <description>Tuestan y perfilan café de distintos orígenes, en filtrados y espresso. Dos locales: Palermo Hollywood y Villa Ortúzar.
Costa Rica 5722, Palermo Hollywood
https://www.instagram.com/vivecafe/</description>
      <Point>
        <coordinates>-58.435909,-34.581681,0</coordinates>
      </Point>
    </Placemark>
    <Placemark>
      <name>#5 Cuervo Café</name>
      <description>Arrancaron en 2016 Agustín Caro y Pablo Tokatlian. Tuestan granos que importan de distintos orígenes y hoy también tienen heladería.
Av. Jorge Newbery 3898, Chacarita
https://www.instagram.com/cuervocafe/</description>
      <Point>
        <coordinates>-58.450028,-34.586889,0</coordinates>
      </Point>
    </Placemark>
    <Placemark>
      <name>#6 Blanca</name>
      <description>Concept store de café, bakery y objetos. Casa madre de Blanca Studio, con local en Soldado de la Independencia 1177, Las Cañitas.
Soldado de la Independencia 1177, Las Cañitas
https://www.instagram.com/blancadecocafe/</description>
      <Point>
        <coordinates>-58.439214,-34.564619,0</coordinates>
      </Point>
    </Placemark>
    <Placemark>
      <name>#7 Negro</name>
      <description>Negro Cueva de Café, en San Nicolás. Séptimo a nivel país y 94 en The World's 100 Best Coffee Shops 2026.
Suipacha 637, San Nicolás</description>
      <Point>
        <coordinates>-58.379578,-34.60084,0</coordinates>
      </Point>
    </Placemark>
    <Placemark>
      <name>#8 Calafate Coffee Roasters</name>
      <description>Tuestan y sirven café de especialidad en El Calafate, en José Pantin 31. También mandan grano a todo el país.
Calafate Coffee Roasters, 31, José Pantin, Centro, El Calafate, Municipio de El Calafate, Lago Argentino, Santa Cruz, Z9405, Argentina
https://www.instagram.com/calafatecoffeeroasters/</description>
      <Point>
        <coordinates>-72.259089,-50.337948,0</coordinates>
      </Point>
    </Placemark>
    <Placemark>
      <name>#9 Meme</name>
      <description>Café de especialidad en Palermo, en Dorrego 2591. Barra chica y mucha gente del barrio.
Dorrego 2591, Palermo
https://www.instagram.com/_memecoffee/</description>
      <Point>
        <coordinates>-58.434494,-34.574594,0</coordinates>
      </Point>
    </Placemark>
    <Placemark>
      <name>#10 Raíz</name>
      <description>Barra de especialidad en Villa Crespo, un poco más lejos del circuito Palermo.
Aguirre 1015, Villa Crespo
https://www.instagram.com/raiz.cafe/</description>
      <Point>
        <coordinates>-58.432588,-34.600943,0</coordinates>
      </Point>
    </Placemark>
    <Placemark>
      <name>#11 Fruto</name>
      <description>Café de especialidad en Palermo, sobre Cabrera.
FRUTO, José Antonio Cabrera, Palermo, Buenos Aires, Distrito Audiovisual, Comuna 14, Ciudad Autónoma de Buenos Aires, C1414BBE, Argentina
https://www.instagram.com/fruto.cafe/</description>
      <Point>
        <coordinates>-58.441609,-34.582993,0</coordinates>
      </Point>
    </Placemark>
    <Placemark>
      <name>#12 Lattente</name>
      <description>Cafetería de especialidad en Thames, Palermo Soho.
Lattente, 1891, Thames, Palermo Soho, Palermo, Buenos Aires, Comuna 14, Ciudad Autónoma de Buenos Aires, C1414DAU, Argentina
https://www.instagram.com/lattentecafe/</description>
      <Point>
        <coordinates>-58.428024,-34.586166,0</coordinates>
      </Point>
    </Placemark>
    <Placemark>
      <name>#13 Ruffo</name>
      <description>Tostadero y cafetería en su fábrica de Rosario. Podés almorzar mirando cómo tuestan.
Jujuy 2581, Rosario
https://www.instagram.com/ruffocoffee/</description>
      <Point>
        <coordinates>-60.656318,-32.934665,0</coordinates>
      </Point>
    </Placemark>
    <Placemark>
      <name>#14 Lab de Juju</name>
      <description>Laboratorio de café de especialidad en Rosario, el proyecto formativo de Juju Parera.
Santiago 601, Rosario
https://www.instagram.com/labdejuju/</description>
      <Point>
        <coordinates>-60.655365,-32.941052,0</coordinates>
      </Point>
    </Placemark>
    <Placemark>
      <name>#15 Parce Café Studio</name>
      <description>Studio de café y escucha musical en Córdoba, en Pasaje Comercio 467.
Pasaje Comercio 467, Córdoba
https://www.instagram.com/parcecafestudio/</description>
      <Point>
        <coordinates>-64.190565,-31.408017,0</coordinates>
      </Point>
    </Placemark>
    <Placemark>
      <name>#16 Standalone Coffee Lab</name>
      <description>Coffee lab en Buenos Aires. Más laboratorio de extracciones que cafetería de paso.
CABA, CABA
https://www.instagram.com/standalone.lab/</description>
      <Point>
        <coordinates>-58.378,-34.59941,0</coordinates>
      </Point>
    </Placemark>
    <Placemark>
      <name>#17 Rita</name>
      <description>Café de especialidad en Armenia, Palermo Soho.
Rita Cafe, 1595, Armenia, Palermo Soho, Palermo, Buenos Aires, Comuna 14, Ciudad Autónoma de Buenos Aires, C1414BMK, Argentina</description>
      <Point>
        <coordinates>-58.428205,-34.590179,0</coordinates>
      </Point>
    </Placemark>
    <Placemark>
      <name>#18 Casa Chacana</name>
      <description>Cafetería de especialidad en Córdoba.
Luis José de Tejeda 4242, Córdoba</description>
      <Point>
        <coordinates>-64.234144,-31.370108,0</coordinates>
      </Point>
    </Placemark>
    <Placemark>
      <name>#19 Runge</name>
      <description>Café de especialidad en el Parque, Rosario Centro.
Runge Café, Italia, Parque, Rosario Centro, Distrito Centro, Rosario, Municipio de Rosario, Gran Rosario, Departamento Rosario, Santa Fe, S2000, Argentina</description>
      <Point>
        <coordinates>-60.646985,-32.941869,0</coordinates>
      </Point>
    </Placemark>
    <Placemark>
      <name>#20 Flat &amp; White</name>
      <description>Barra de especialidad cerca de Retiro, sobre Cerrito.
flat&amp;white, 1224, Cerrito, Villa 31, Retiro, Buenos Aires, Comuna 1, Ciudad Autónoma de Buenos Aires, C1010AAZ, Argentina</description>
      <Point>
        <coordinates>-58.382988,-34.59396,0</coordinates>
      </Point>
    </Placemark>
    <Placemark>
      <name>#21 Zulu Haus</name>
      <description>Café y pastelería de Maia Mendoza en La Lucila, Zona Norte. Entre las firmas, un tiramisú keto.
Salvador Debenedetti 635, La Lucila
https://www.instagram.com/zulu.haus/</description>
      <Point>
        <coordinates>-58.488799,-34.497721,0</coordinates>
      </Point>
    </Placemark>
    <Placemark>
      <name>#22 Primero Café</name>
      <description>Café de especialidad en Buenos Aires. En su bio se presentan como el 22 del ranking.
Thames 1176, Villa Crespo
https://www.instagram.com/primerocafe.ar/</description>
      <Point>
        <coordinates>-58.43571,-34.590923,0</coordinates>
      </Point>
    </Placemark>
    <Placemark>
      <name>#23 Gota</name>
      <description>Cafetería de especialidad en Rosario.
Tucumán 1226, Rosario</description>
      <Point>
        <coordinates>-60.638764,-32.941443,0</coordinates>
      </Point>
    </Placemark>
    <Placemark>
      <name>#24 Wat Coffee</name>
      <description>Café de especialidad en Buenos Aires.
Chile 980, San Telmo
https://www.instagram.com/wat_coffee/</description>
      <Point>
        <coordinates>-58.375982,-34.616216,0</coordinates>
      </Point>
    </Placemark>
    <Placemark>
      <name>#25 Motofeca</name>
      <description>Tostadores de especialidad en Paraguay 627, Retiro. También venden drip bags para armar el café sin cafetera.
Paraguay 627, Retiro
https://www.instagram.com/motofeca/</description>
      <Point>
        <coordinates>-58.375821,-34.597466,0</coordinates>
      </Point>
    </Placemark>
    <Placemark>
      <name>#26 Ostia</name>
      <description>Café de especialidad en Buenos Aires.
CABA, CABA
https://www.instagram.com/ostiacafe/</description>
      <Point>
        <coordinates>-58.384981,-34.59645,0</coordinates>
      </Point>
    </Placemark>
    <Placemark>
      <name>#27 Vedra Café</name>
      <description>Cafetería de especialidad en Buenos Aires.
Vuelta de Obligado 2613, Belgrano</description>
      <Point>
        <coordinates>-58.459809,-34.556554,0</coordinates>
      </Point>
    </Placemark>
    <Placemark>
      <name>#28 Surry Hills</name>
      <description>Brunch australiano y café de especialidad. Quedó 99 en The World's 100 Best Coffee Shops 2026. La bakery también es protagonista.
Arévalo 2877, Palermo
https://www.instagram.com/surryhillsbuenosaires/</description>
      <Point>
        <coordinates>-58.43131,-34.572328,0</coordinates>
      </Point>
    </Placemark>
    <Placemark>
      <name>#29 Cora Café</name>
      <description>Café de especialidad en el hall del Kavanagh, sobre Florida, en Retiro.
Florida 1045, Edificio Kavanagh, Retiro</description>
      <Point>
        <coordinates>-58.37455,-34.59535,0</coordinates>
      </Point>
    </Placemark>
    <Placemark>
      <name>#30 The Coffee Store (Martínez)</name>
      <description>Cafetería de especialidad en Martínez, Zona Norte.
Gral. Alvear 352, Martínez</description>
      <Point>
        <coordinates>-58.496691,-34.487527,0</coordinates>
      </Point>
    </Placemark>
    <Placemark>
      <name>#31 Onno</name>
      <description>Café de especialidad en Almagro, sobre Río de Janeiro.
Onno, Río de Janeiro, Almagro, Buenos Aires, Comuna 5, Ciudad Autónoma de Buenos Aires, C1405DHB, Argentina</description>
      <Point>
        <coordinates>-58.432645,-34.603443,0</coordinates>
      </Point>
    </Placemark>
    <Placemark>
      <name>#32 Café Delirante</name>
      <description>Café de especialidad en Bariloche, sobre Avenida de los Pioneros.
Café Delirante, 4962, Avenida de los Pioneros, Carihue, San Carlos de Bariloche, Municipio de San Carlos de Bariloche, Departamento Bariloche, Río Negro, 8400, Argentina</description>
      <Point>
        <coordinates>-71.369329,-41.130348,0</coordinates>
      </Point>
    </Placemark>
    <Placemark>
      <name>#33 Lharmonie</name>
      <description>Cafetería sobre Libertador, en Palermo Botánico.
LHarmonie, 3118, Avenida Del Libertador, Palermo Botánico, Palermo, Buenos Aires, Comuna 14, Ciudad Autónoma de Buenos Aires, C1425DCO, Argentina</description>
      <Point>
        <coordinates>-58.412396,-34.576576,0</coordinates>
      </Point>
    </Placemark>
    <Placemark>
      <name>#34 Café Heraldo</name>
      <description>Café de especialidad en Mar del Plata.
Alberti 2965, Mar del Plata</description>
      <Point>
        <coordinates>-57.556285,-38.004779,0</coordinates>
      </Point>
    </Placemark>
    <Placemark>
      <name>#35 Malcriada</name>
      <description>Café de especialidad en Palermo Hollywood, sobre Bonpland.
Malcriada Café, 1367, Bonpland, Palermo Hollywood, Palermo, Buenos Aires, Distrito Audiovisual, Comuna 14, Ciudad Autónoma de Buenos Aires, 1425, Argentina</description>
      <Point>
        <coordinates>-58.440674,-34.586307,0</coordinates>
      </Point>
    </Placemark>
    <Placemark>
      <name>#36 Punto Café</name>
      <description>Barra de especialidad en Monserrat, sobre Perú.
Punto Café, 602, Perú, Monserrat, Buenos Aires, Comuna 1, Ciudad Autónoma de Buenos Aires, C1068AAB, Argentina</description>
      <Point>
        <coordinates>-58.37437,-34.615005,0</coordinates>
      </Point>
    </Placemark>
    <Placemark>
      <name>#37 Cofi Jaus</name>
      <description>Café de especialidad en Buenos Aires.
Cofi Jaus, 1793, Humboldt, Palermo Hollywood, Palermo, Buenos Aires, Distrito Audiovisual, Comuna 14, Ciudad Autónoma de Buenos Aires, C1414CWC, Argentina</description>
      <Point>
        <coordinates>-58.434491,-34.584302,0</coordinates>
      </Point>
    </Placemark>
    <Placemark>
      <name>#38 Café Registrado</name>
      <description>Cadena de especialidad con varios locales. El ranking nacional los puso 38.
Café Registrado, 5901, Costa Rica, Palermo Hollywood, Palermo, Buenos Aires, Distrito Audiovisual, Comuna 14, Ciudad Autónoma de Buenos Aires, 1414, Argentina
https://www.instagram.com/caferegistrado/</description>
      <Point>
        <coordinates>-58.437698,-34.580134,0</coordinates>
      </Point>
    </Placemark>
    <Placemark>
      <name>#39 Manifiesto</name>
      <description>Café de especialidad en Buenos Aires.
Manifiesto por el Café, Aguilar, Palermo, Buenos Aires, Comuna 14, Ciudad Autónoma de Buenos Aires, C1426AAY, Argentina</description>
      <Point>
        <coordinates>-58.445444,-34.567102,0</coordinates>
      </Point>
    </Placemark>
    <Placemark>
      <name>#40 Lab Tostadores</name>
      <description>Tostadero y barra de especialidad en Buenos Aires.
Humboldt 1542, Palermo Hollywood
https://www.instagram.com/labtostadores/</description>
      <Point>
        <coordinates>-58.436859,-34.586024,0</coordinates>
      </Point>
    </Placemark>
    <Placemark>
      <name>#41 Patio (City Bell)</name>
      <description>Cafetería de especialidad en City Bell.
Calle 13 B 421, City Bell</description>
      <Point>
        <coordinates>-58.049124,-34.873458,0</coordinates>
      </Point>
    </Placemark>
    <Placemark>
      <name>#42 Sosa Café</name>
      <description>Café de especialidad en Buenos Aires.
Moldes 653, Colegiales</description>
      <Point>
        <coordinates>-58.447075,-34.572543,0</coordinates>
      </Point>
    </Placemark>
    <Placemark>
      <name>#43 Fomento Café</name>
      <description>Café de especialidad en Buenos Aires.
Zapiola 2402, Belgrano</description>
      <Point>
        <coordinates>-58.46592,-34.563134,0</coordinates>
      </Point>
    </Placemark>
    <Placemark>
      <name>#44 Green Mug</name>
      <description>Café de especialidad en Mar del Plata. Tienen dos locales: Castelli 1281 y San Luis 3031.
Castelli 1281, Mar del Plata
https://www.instagram.com/greenmug.coffee/</description>
      <Point>
        <coordinates>-57.541327,-38.015674,0</coordinates>
      </Point>
    </Placemark>
    <Placemark>
      <name>#45 Hobby Café</name>
      <description>Coffee roasters en Buenos Aires.
Malabia 1343, Palermo
https://www.instagram.com/hobbycafe.ba/</description>
      <Point>
        <coordinates>-58.429712,-34.592711,0</coordinates>
      </Point>
    </Placemark>
    <Placemark>
      <name>#46 Canillita</name>
      <description>Puesto de diarios convertido en café de especialidad, en Junín y Paraguay, Recoleta.
Junín 926, Barrio Norte, Recoleta</description>
      <Point>
        <coordinates>-58.397455,-34.598251,0</coordinates>
      </Point>
    </Placemark>
    <Placemark>
      <name>#47 Krake</name>
      <description>Cafetería de especialidad en Córdoba.
Belgrano 884, Paseo Caribú, Córdoba</description>
      <Point>
        <coordinates>-64.192633,-31.425109,0</coordinates>
      </Point>
    </Placemark>
    <Placemark>
      <name>#48 Serafin</name>
      <description>Café de especialidad en Corrientes.
San Juan 661, Corrientes</description>
      <Point>
        <coordinates>-58.836432,-27.464914,0</coordinates>
      </Point>
    </Placemark>
    <Placemark>
      <name>#49 Traje Café</name>
      <description>Café de especialidad en Buenos Aires.
Av. Díaz Vélez 4674, Caballito</description>
      <Point>
        <coordinates>-58.432458,-34.608836,0</coordinates>
      </Point>
    </Placemark>
    <Placemark>
      <name>#50 Arto</name>
      <description>La primera cafetería de especialidad de Rosario, abierta desde 2018.
Tucumán 1932, Rosario
https://www.instagram.com/artocafe/</description>
      <Point>
        <coordinates>-60.648506,-32.939659,0</coordinates>
      </Point>
    </Placemark>
    <Placemark>
      <name>#51 Caffé Del Popolo</name>
      <description>Cafetería de especialidad en Córdoba.
Av. Hipólito Yrigoyen 398, Córdoba</description>
      <Point>
        <coordinates>-64.186201,-31.42598,0</coordinates>
      </Point>
    </Placemark>
    <Placemark>
      <name>#52 Café Puzzi</name>
      <description>Café de especialidad en Wilde, Zona Sur.
Bragado 6180, Wilde</description>
      <Point>
        <coordinates>-58.314559,-34.700893,0</coordinates>
      </Point>
    </Placemark>
    <Placemark>
      <name>#53 Cafetino (General Pico)</name>
      <description>Café de especialidad en General Pico, La Pampa.
Av. San Martín 688, General Pico
https://www.instagram.com/cafetinogeneralpico/</description>
      <Point>
        <coordinates>-63.768127,-35.650399,0</coordinates>
      </Point>
    </Placemark>
    <Placemark>
      <name>#54 Kaizen</name>
      <description>Cafetería de especialidad en Jujuy.
Jujuy, Jujuy</description>
      <Point>
        <coordinates>-65.305157,-24.191457,0</coordinates>
      </Point>
    </Placemark>
    <Placemark>
      <name>#55 Ninina</name>
      <description>Bakery artesanal y café de especialidad. En Buenos Aires están en Gorriti, Borges y El Solar.
Ninina, 2464, Holmberg, Villa Urquiza, Buenos Aires, Comuna 12, Ciudad Autónoma de Buenos Aires, 1430, Argentina
https://www.instagram.com/ninina.arg/</description>
      <Point>
        <coordinates>-58.477222,-34.569344,0</coordinates>
      </Point>
    </Placemark>
    <Placemark>
      <name>#56 Cobin</name>
      <description>Café de especialidad en Buenos Aires.
Cobin, Jerónimo Salguero, Almagro, Buenos Aires, Comuna 5, Ciudad Autónoma de Buenos Aires, C1198AAT, Argentina</description>
      <Point>
        <coordinates>-58.41976,-34.606241,0</coordinates>
      </Point>
    </Placemark>
    <Placemark>
      <name>#57 Doc Café</name>
      <description>Café de especialidad en Buenos Aires.
Doc Café, 645, Aráoz, Villa Crespo, Buenos Aires, Comuna 15, Ciudad Autónoma de Buenos Aires, C1414DPM, Argentina</description>
      <Point>
        <coordinates>-58.434303,-34.59822,0</coordinates>
      </Point>
    </Placemark>
    <Placemark>
      <name>#58 The Tiny Coffee: Refugio</name>
      <description>Refugio de café de especialidad en Neuquén.
Neuquén, Neuquén</description>
      <Point>
        <coordinates>-68.054513,-38.948388,0</coordinates>
      </Point>
    </Placemark>
    <Placemark>
      <name>#59 Kuta</name>
      <description>Cafetería de especialidad en Olivos.
José Manuel Estrada 2591, Olivos</description>
      <Point>
        <coordinates>-58.488677,-34.507992,0</coordinates>
      </Point>
    </Placemark>
    <Placemark>
      <name>#60 Paisa High Mountain Coffee</name>
      <description>Café de altura patagónico, en Santa Cruz.
Ricardo Arbilla 86, El Chaltén</description>
      <Point>
        <coordinates>-72.889883,-49.330487,0</coordinates>
      </Point>
    </Placemark>
    <Placemark>
      <name>#61 Uno Dos Café</name>
      <description>Café de especialidad en Buenos Aires.
Paunero 1030, San Miguel</description>
      <Point>
        <coordinates>-58.706882,-34.544713,0</coordinates>
      </Point>
    </Placemark>
    <Placemark>
      <name>#62 Shiok Coffee Roasters</name>
      <description>Coffee roasters en Córdoba.
Shiok Coffee Roasters, 34, Mitre, Roca, San Francisco, Municipio de San Francisco, Pedanía Juárez Celman, Departamento San Justo, Córdoba, 2400, Argentina</description>
      <Point>
        <coordinates>-62.086954,-31.42884,0</coordinates>
      </Point>
    </Placemark>
    <Placemark>
      <name>#63 Plantado Café</name>
      <description>Café de especialidad en Buenos Aires.
Gral. Carlos María de Alvear 897, Lomas de Zamora</description>
      <Point>
        <coordinates>-58.406084,-34.749077,0</coordinates>
      </Point>
    </Placemark>
    <Placemark>
      <name>#64 Leto</name>
      <description>Cafetería de especialidad en Santa Fe capital.
Rivadavia 2563, Santa Fe</description>
      <Point>
        <coordinates>-60.704573,-31.646545,0</coordinates>
      </Point>
    </Placemark>
    <Placemark>
      <name>#65 Café Boheme</name>
      <description>Café de especialidad en Buenos Aires.
Libertad 545, San Nicolás</description>
      <Point>
        <coordinates>-58.383764,-34.602039,0</coordinates>
      </Point>
    </Placemark>
    <Placemark>
      <name>#66 La Nieve</name>
      <description>Café de especialidad en Santa Cruz.
La Nieve, Avenida San Martín, El Chaltén, Municipio de El Chaltén, Lago Argentino, Santa Cruz, Z9304, Argentina</description>
      <Point>
        <coordinates>-72.885578,-49.330549,0</coordinates>
      </Point>
    </Placemark>
    <Placemark>
      <name>#67 Christen Coffee</name>
      <description>Cafetería de especialidad en Santa Fe.
Las Macluras 6627, Santa Fe</description>
      <Point>
        <coordinates>-60.596821,-31.625521,0</coordinates>
      </Point>
    </Placemark>
    <Placemark>
      <name>#68 Birkin</name>
      <description>Café de especialidad en Buenos Aires.
Birkin, 3061, República Árabe Siria, Palermo Botánico, Palermo, Buenos Aires, Comuna 14, Ciudad Autónoma de Buenos Aires, C1425EYL, Argentina</description>
      <Point>
        <coordinates>-58.413194,-34.580484,0</coordinates>
      </Point>
    </Placemark>
    <Placemark>
      <name>#69 Daniel Bakery</name>
      <description>Panadería y café en Buenos Aires.
Daniel Bakery, Avenida Honduras, Palermo, Buenos Aires, Comuna 14, Ciudad Autónoma de Buenos Aires, C1180ACD, Argentina</description>
      <Point>
        <coordinates>-58.414625,-34.594094,0</coordinates>
      </Point>
    </Placemark>
    <Placemark>
      <name>#70 Salma Café</name>
      <description>Café de especialidad en Buenos Aires.
Acevedo 435, Villa Crespo</description>
      <Point>
        <coordinates>-58.440084,-34.597875,0</coordinates>
      </Point>
    </Placemark>
    <Placemark>
      <name>#71 Hacienda Coffee Company</name>
      <description>Coffee company en Buenos Aires.
Armenia 1929, Palermo</description>
      <Point>
        <coordinates>-58.425066,-34.588104,0</coordinates>
      </Point>
    </Placemark>
    <Placemark>
      <name>#72 Merci Coffee Dealer</name>
      <description>Coffee dealer en Buenos Aires. Más tostadero que salón clásico.
Calle 21 1498, Miramar</description>
      <Point>
        <coordinates>-57.840584,-38.268509,0</coordinates>
      </Point>
    </Placemark>
    <Placemark>
      <name>#73 Bulgaro</name>
      <description>Café de especialidad en Buenos Aires.
Güemes 3626, Palermo</description>
      <Point>
        <coordinates>-58.413952,-34.588634,0</coordinates>
      </Point>
    </Placemark>
    <Placemark>
      <name>#74 Mr. Coffee</name>
      <description>Cafetería de especialidad en Córdoba.
Las Heras 485, Villa Carlos Paz</description>
      <Point>
        <coordinates>-64.500284,-31.422144,0</coordinates>
      </Point>
    </Placemark>
    <Placemark>
      <name>#75 Café LSA</name>
      <description>Café de especialidad en Salta.
Salta, Salta</description>
      <Point>
        <coordinates>-65.429547,-24.78697,0</coordinates>
      </Point>
    </Placemark>
    <Placemark>
      <name>#76 Passage Du Cafe</name>
      <description>Cafetería de especialidad en Córdoba.
Ayacucho 361, Córdoba</description>
      <Point>
        <coordinates>-64.191115,-31.418737,0</coordinates>
      </Point>
    </Placemark>
    <Placemark>
      <name>#77 Almendro</name>
      <description>Café de especialidad en Resistencia, Chaco.
López y Planes 521, Resistencia</description>
      <Point>
        <coordinates>-58.979334,-27.449247,0</coordinates>
      </Point>
    </Placemark>
    <Placemark>
      <name>#78 Fran Coffee Makers</name>
      <description>Café de especialidad en Mendoza.
Nicolás Avellaneda 9, Mendoza</description>
      <Point>
        <coordinates>-68.849564,-32.886426,0</coordinates>
      </Point>
    </Placemark>
    <Placemark>
      <name>#79 Feka</name>
      <description>Cafetería de especialidad en Rosario.
Av. Carballo 174, Rosario</description>
      <Point>
        <coordinates>-60.685221,-32.922264,0</coordinates>
      </Point>
    </Placemark>
    <Placemark>
      <name>#80 Bicho Café</name>
      <description>Café de especialidad en Buenos Aires.
Olleros 1637, Palermo</description>
      <Point>
        <coordinates>-58.444361,-34.570253,0</coordinates>
      </Point>
    </Placemark>
    <Placemark>
      <name>#81 Báltica Café</name>
      <description>Café de especialidad en Buenos Aires.
Quesada 1798, Núñez</description>
      <Point>
        <coordinates>-58.457125,-34.551213,0</coordinates>
      </Point>
    </Placemark>
    <Placemark>
      <name>#82 Ciro Café (Palermo)</name>
      <description>La sede palermitana de Ciro. Misma inspiración italiana, otro barrio.
Guatemala 4798, Palermo</description>
      <Point>
        <coordinates>-58.4254,-34.585717,0</coordinates>
      </Point>
    </Placemark>
    <Placemark>
      <name>#83 Sinsa Café</name>
      <description>Café de especialidad en Guido 2402, Recoleta, a una cuadra del cementerio.
Guido 2402, Recoleta
https://www.instagram.com/sinsacafe/</description>
      <Point>
        <coordinates>-58.395162,-34.586285,0</coordinates>
      </Point>
    </Placemark>
    <Placemark>
      <name>#84 Gabs Café</name>
      <description>Café de especialidad en Buenos Aires.
Jean Jaurès 987, Balvanera</description>
      <Point>
        <coordinates>-58.406664,-34.598338,0</coordinates>
      </Point>
    </Placemark>
    <Placemark>
      <name>#85 Lon Philosophy</name>
      <description>Café de especialidad en Buenos Aires.
CABA, CABA</description>
      <Point>
        <coordinates>-58.380561,-34.608386,0</coordinates>
      </Point>
    </Placemark>
    <Placemark>
      <name>#86 Voltri</name>
      <description>Café de especialidad en Buenos Aires.
San Martín 780, Quilmes</description>
      <Point>
        <coordinates>-58.257025,-34.725765,0</coordinates>
      </Point>
    </Placemark>
    <Placemark>
      <name>#87 Cobre Café</name>
      <description>Café de especialidad en Buenos Aires.
Cobre Café, 727, Acevedo, Villa Crespo, Buenos Aires, Comuna 15, Ciudad Autónoma de Buenos Aires, C1414ASL, Argentina</description>
      <Point>
        <coordinates>-58.436951,-34.59585,0</coordinates>
      </Point>
    </Placemark>
    <Placemark>
      <name>#88 Caffetos</name>
      <description>Café de especialidad en Buenos Aires.
Dr. Emilio Cardeza 227, Monte Grande</description>
      <Point>
        <coordinates>-58.463797,-34.816887,0</coordinates>
      </Point>
    </Placemark>
    <Placemark>
      <name>#89 Ethiopia Café</name>
      <description>Cafetería de especialidad en Córdoba, con foco en orígenes.
Belgrano 867, Córdoba</description>
      <Point>
        <coordinates>-64.192408,-31.424969,0</coordinates>
      </Point>
    </Placemark>
    <Placemark>
      <name>#90 Estación Café Salta</name>
      <description>Café de especialidad en Salta.
Salta, Salta</description>
      <Point>
        <coordinates>-65.416977,-24.788323,0</coordinates>
      </Point>
    </Placemark>
    <Placemark>
      <name>#91 Juana House</name>
      <description>Café de especialidad en San Juan.
Del Bono entre Juana Manso y Cornelio Saavedra, San Juan</description>
      <Point>
        <coordinates>-68.563127,-31.53324,0</coordinates>
      </Point>
    </Placemark>
    <Placemark>
      <name>#92 Korto Coffee House</name>
      <description>Coffee house en Buenos Aires.
Pareja 4089, Devoto</description>
      <Point>
        <coordinates>-58.513653,-34.599041,0</coordinates>
      </Point>
    </Placemark>
    <Placemark>
      <name>#93 Rocco Cafe</name>
      <description>Café de especialidad en Santa Cruz.
Santa Cruz, Santa Cruz</description>
      <Point>
        <coordinates>-72.265531,-50.342552,0</coordinates>
      </Point>
    </Placemark>
    <Placemark>
      <name>#94 Ficus</name>
      <description>Cafetería de especialidad en Santa Fe.
Santa Fe, Santa Fe</description>
      <Point>
        <coordinates>-60.7,-31.6333,0</coordinates>
      </Point>
    </Placemark>
    <Placemark>
      <name>#95 Café Copado</name>
      <description>Café de especialidad en Mendoza.
Paso de los Andes 1420, Mendoza</description>
      <Point>
        <coordinates>-68.858776,-32.883235,0</coordinates>
      </Point>
    </Placemark>
    <Placemark>
      <name>#96 Garden Coffee</name>
      <description>Cafetería de especialidad en Santa Fe.
Paseo de las Acacias, Santo Tomé</description>
      <Point>
        <coordinates>-60.774791,-31.629311,0</coordinates>
      </Point>
    </Placemark>
    <Placemark>
      <name>#97 Aste Café Con Pasión</name>
      <description>Café de especialidad en Córdoba.
Ituzaingó 904, Nueva Córdoba</description>
      <Point>
        <coordinates>-64.18598,-31.427538,0</coordinates>
      </Point>
    </Placemark>
    <Placemark>
      <name>#98 Casa Pina</name>
      <description>Café de especialidad en Buenos Aires.
Casa Pina, Charcas, Palermo, Buenos Aires, Comuna 14, Ciudad Autónoma de Buenos Aires, C1425FNI, Argentina</description>
      <Point>
        <coordinates>-58.42534,-34.581935,0</coordinates>
      </Point>
    </Placemark>
    <Placemark>
      <name>#99 Florian</name>
      <description>Café de especialidad en Buenos Aires.
CABA</description>
      <Point>
        <coordinates>-58.425,-34.5875,0</coordinates>
      </Point>
    </Placemark>
    <Placemark>
      <name>#100 Habitat</name>
      <description>Café de especialidad en Mendoza.
Prado Español, Parque General San Martín, Mendoza</description>
      <Point>
        <coordinates>-68.866509,-32.896787,0</coordinates>
      </Point>
    </Placemark>
  </Document>
</kml>
